NORAD_CAT_ID,OBJECT_NAME,OBJECT_TYPE,EPOCH,MEAN_MOTION,ECCENTRICITY,INCLINATION,RA_OF_ASC_NODE,ARG_OF_PERICENTER,MEAN_ANOMALY,BSTAR,MEAN_MOTION_DOT,MEAN_MOTION_DDOT,TLE_LINE0,TLE_LINE1,TLE_LINE2,SEMIMAJOR_AXIS,PERIOD,APOGEE,PERIGEE,DECAYED
50822.0,STARLINK-3343,PAYLOAD,2023-10-01 19:23:18,15.08842589,0.0001531,53.2177,203.9555,85.761,274.3557,0.00013652,1.886e-05,0.0,0 STARLINK-3343,1 50822U 22001V   23274.80784728  .00001886  00000-0  13652-3 0  9997,2 50822  53.2177 203.9555 0001531  85.7610 274.3557 15.08842589 97313,6917.872,95.437,540.797,538.678,0.0
50822.0,STARLINK-3343,PAYLOAD,2023-10-02 01:44:50,15.0885542,0.0001361,53.2164,202.7673,101.5548,258.5597,0.00058865,9.097e-05,0.0,0 STARLINK-3343,1 50822U 22001V   23275.07280246  .00009097  00000-0  58865-3 0  9990,2 50822  53.2164 202.7673 0001361 101.5548 258.5597 15.08855420 97355,6917.833,95.437,540.64,538.757,0.0
50822.0,STARLINK-3343,PAYLOAD,2023-10-02 19:14:04,15.08852627,0.0001879,53.2148,199.4971,94.0264,266.0943,0.00046321,7.094e-05,0.0,0 STARLINK-3343,1 50822U 22001V   23275.80144481  .00007094  00000-0  46321-3 0  9990,2 50822  53.2148 199.4971 0001879  94.0264 266.0943 15.08852627 97462,6917.842,95.437,541.007,538.407,0.0
50822.0,STARLINK-3343,PAYLOAD,2023-10-03 04:46:23,15.08852902,0.0001749,53.2165,197.7129,107.373,252.7453,0.00097451,0.00015261,0.0,0 STARLINK-3343,1 50822U 22001V   23276.19888252  .00015261  00000-0  97451-3 0  9999,2 50822  53.2165 197.7129 0001749 107.3730 252.7453 15.08852902 96271,6917.841,95.437,540.916,538.496,0.0
50822.0,STARLINK-3343,PAYLOAD,2023-10-03 19:04:52,15.08840985,0.000165,53.2157,195.0359,104.7636,255.3539,0.00050624,7.778e-05,0.0,0 STARLINK-3343,1 50822U 22001V   23276.79504910  .00007778  00000-0  50624-3 0  9996,2 50822  53.2157 195.0359 0001650 104.7636 255.3539 15.08840985 97616,6917.877,95.437,540.884,538.601,0.0
50822.0,STARLINK-3343,PAYLOAD,2023-10-03 22:15:38,15.08835566,0.0001729,53.2156,194.441,109.151,250.967,0.00026415,3.918e-05,0.0,0 STARLINK-3343,1 50822U 22001V   23276.92752991  .00003918  00000-0  26415-3 0  9998,2 50822  53.2156 194.4410 0001729 109.1510 250.9670 15.08835566 96382,6917.894,95.438,540.955,538.563,0.0
50822.0,STARLINK-3343,PAYLOAD,2023-10-04 10:58:43,15.08843295,0.0001634,53.2163,192.0638,88.5059,271.612,0.00066425,0.000103,0.0,0 STARLINK-3343,1 50822U 22001V   23277.45745152  .00010300  00000-0  66425-3 0  9996,2 50822  53.2163 192.0638 0001634  88.5059 271.6120 15.08843295 97715,6917.87,95.437,540.866,538.605,0.0
50822.0,STARLINK-3343,PAYLOAD,2023-10-05 10:49:30,15.0885164,0.0001518,53.2156,187.6021,87.2949,272.8217,0.00044544,6.811e-05,0.0,0 STARLINK-3343,1 50822U 22001V   23278.45104708  .00006811  00000-0  44544-3 0  9993,2 50822  53.2156 187.6021 0001518  87.2949 272.8217 15.08851640 97867,6917.845,95.437,540.76,538.66,0.0
50822.0,STARLINK-3343,PAYLOAD,2023-10-05 21:57:12,15.08836584,0.0001859,53.2166,185.5229,99.5685,260.5517,4.1776e-05,3.77e-06,0.0,0 STARLINK-3343,1 50822U 22001V   23278.91473132  .00000377  00000-0  41776-4 0  9990,2 50822  53.2166 185.5229 0001859  99.5685 260.5517 15.08836584 96682,6917.891,95.438,541.042,538.47,0.0
50822.0,STARLINK-3343,PAYLOAD,2023-10-06 02:43:22,15.08841498,0.0001871,53.2158,184.6298,98.1977,261.9228,0.00036101,5.462e-05,0.0,0 STARLINK-3343,1 50822U 22001V   23279.11345126  .00005462  00000-0  36101-3 0  9999,2 50822  53.2158 184.6298 0001871  98.1977 261.9228 15.08841498 97968,6917.876,95.437,541.035,538.446,0.0
50822.0,STARLINK-3343,PAYLOAD,2023-10-06 10:40:18,15.08835904,0.0002441,53.2148,183.1417,82.2363,277.8906,0.00051558,7.926e-05,0.0,0 STARLINK-3343,1 50822U 22001V   23279.44465642  .00007926  00000-0  51558-3 0  9991,2 50822  53.2148 183.1417 0002441  82.2363 277.8906 15.08835904 96762,6917.893,95.438,541.447,538.069,0.0
50822.0,STARLINK-3343,PAYLOAD,2023-10-06 21:48:00,15.0883361,0.0002752,53.2148,181.0603,81.7423,278.3882,0.00037429,5.673e-05,0.0,0 STARLINK-3343,1 50822U 22001V   23279.90834075  .00005673  00000-0  37429-3 0  9990,2 50822  53.2148 181.0603 0002752  81.7423 278.3882 15.08833610 96831,6917.9,95.438,541.669,537.861,0.0
50822.0,STARLINK-3343,PAYLOAD,2023-10-07 00:58:46,15.08836937,0.0001971,53.2154,180.4663,86.3311,273.7907,0.00039649,6.027e-05,0.0,0 STARLINK-3343,1 50822U 22001V   23280.04081896  .00006027  00000-0  39649-3 0  9992,2 50822  53.2154 180.4663 0001971  86.3311 273.7907 15.08836937 98100,6917.89,95.438,541.118,538.391,0.0
50822.0,STARLINK-3343,PAYLOAD,2023-10-07 10:31:05,15.08843614,0.0001844,53.2149,178.6818,81.0622,279.0579,0.00065732,0.0001019,0.0,0 STARLINK-3343,1 50822U 22001V   23280.43825840  .00010190  00000-0  65732-3 0  9998,2 50822  53.2149 178.6818 0001844  81.0622 279.0579 15.08843614 96912,6917.869,95.437,541.01,538.459,0.0
50822.0,STARLINK-3343,PAYLOAD,2023-10-07 21:38:47,15.08842207,0.000214,53.2155,176.5997,78.4039,281.7193,0.00022115,3.233e-05,0.0,0 STARLINK-3343,1 50822U 22001V   23280.90193953  .00003233  00000-0  22115-3 0  9991,2 50822  53.2155 176.5997 0002140  78.4039 281.7193 15.08842207 96982,6917.874,95.437,541.219,538.258,0.0
50822.0,STARLINK-3343,PAYLOAD,2023-10-08 02:24:56,15.08847008,0.0001869,53.2154,175.7076,83.5315,276.589,0.00036832,5.58e-05,0.0,0 STARLINK-3343,1 50822U 22001V   23281.10065713  .00005580  00000-0  36832-3 0  9994,2 50822  53.2154 175.7076 0001869  83.5315 276.5890 15.08847008 98264,6917.859,95.437,541.017,538.431,0.0
50822.0,STARLINK-3343,PAYLOAD,2023-10-08 10:21:52,15.08846753,0.0001799,53.2153,174.2214,85.0913,275.0284,0.00033848,5.104e-05,0.0,0 STARLINK-3343,1 50822U 22001V   23281.43185668  .00005104  00000-0  33848-3 0  9998,2 50822  53.2153 174.2214 0001799  85.0913 275.0284 15.08846753 97068,6917.86,95.437,540.969,538.48,0.0
50822.0,STARLINK-3343,PAYLOAD,2023-10-08 21:29:34,15.08848322,0.0001713,53.2157,172.1387,87.1295,272.9893,0.00027611,4.11e-05,0.0,0 STARLINK-3343,1 50822U 22001V   23281.89553439  .00004110  00000-0  27611-3 0  9990,2 50822  53.2157 172.1387 0001713  87.1295 272.9893 15.08848322 97136,6917.855,95.437,540.905,538.535,0.0
50822.0,STARLINK-3343,PAYLOAD,2023-10-09 10:12:39,15.0883501,0.0002292,53.2169,169.76,78.7703,281.3547,-8.9916e-05,-1.719e-05,0.0,0 STARLINK-3343,1 50822U 22001V   23282.42545956 -.00001719  00000-0 -89916-4 0  9996,2 50822  53.2169 169.7600 0002292  78.7703 281.3547 15.08835010 97211,6917.896,95.438,541.346,538.175,0.0
50822.0,STARLINK-3343,PAYLOAD,2023-10-09 21:20:21,15.08836738,0.0001725,53.2169,167.6783,82.5642,277.5546,1.8938e-05,1.3e-07,0.0,0 STARLINK-3343,1 50822U 22001V   23282.88913892  .00000013  00000-0  18938-4 0  9994,2 50822  53.2169 167.6783 0001725  82.5642 277.5546 15.08836738 97286,6917.89,95.438,540.949,538.562,0.0
50822.0,STARLINK-3343,PAYLOAD,2023-10-10 02:06:30,15.08841532,0.0001648,53.2168,166.7839,93.1776,266.9404,0.00016367,2.318e-05,0.0,0 STARLINK-3343,1 50822U 22001V   23283.08785741  .00002318  00000-0  16367-3 0  9990,2 50822  53.2168 166.7839 0001648  93.1776 266.9404 15.08841532 98562,6917.876,95.437,540.881,538.601,0.0
50822.0,STARLINK-3343,PAYLOAD,2023-10-10 21:11:08,15.08844674,0.0001553,53.2163,163.2149,94.2334,265.8836,0.00032853,4.945e-05,0.0,0 STARLINK-3343,1 50822U 22001V   23283.88273868  .00004945  00000-0  32853-3 0  9996,2 50822  53.2163 163.2149 0001553  94.2334 265.8836 15.08844674 97432,6917.866,95.437,540.805,538.657,0.0
50822.0,STARLINK-3343,PAYLOAD,2023-10-11 08:18:50,15.08849435,0.0001555,53.2165,161.1333,91.624,268.493,0.00039725,6.042e-05,0.0,0 STARLINK-3343,1 50822U 22001V   23284.34641694  .00006042  00000-0  39725-3 0  9999,2 50822  53.2165 161.1333 0001555  91.6240 268.4930 15.08849435 98755,6917.852,95.437,540.792,538.641,0.0
50822.0,STARLINK-3343,PAYLOAD,2023-10-12 01:48:05,15.08848346,0.0001408,53.2156,157.8663,94.5628,265.5525,0.00052078,8.012e-05,0.0,0 STARLINK-3343,1 50822U 22001V   23285.07505877  .00008012  00000-0  52078-3 0  9997,2 50822  53.2156 157.8663 0001408  94.5628 265.5525 15.08848346 98862,6917.855,95.437,540.694,538.746,0.0
50822.0,STARLINK-3343,PAYLOAD,2023-10-12 08:09:37,15.08842934,0.0001413,53.2159,156.6757,92.9626,267.1527,0.00033608,5.065e-05,0.0,0 STARLINK-3343,1 50822U 22001V   23285.34002038  .00005065  00000-0  33608-3 0  9991,2 50822  53.2159 156.6757 0001413  92.9626 267.1527 15.08842934 98904,6917.871,95.437,540.714,538.759,0.0
50822.0,STARLINK-3343,PAYLOAD,2023-10-12 22:28:05,15.08844683,0.0001387,53.2154,154.0001,95.8413,264.2737,0.00010531,1.389e-05,0.0,0 STARLINK-3343,1 50822U 22001V   23285.93617898  .00001389  00000-0  10531-3 0  9997,2 50822  53.2154 154.0001 0001387  95.8413 264.2737 15.08844683 97744,6917.866,95.437,540.691,538.772,0.0
50822.0,STARLINK-3343,PAYLOAD,2023-10-13 20:43:29,15.08844893,0.0001458,53.216,149.8366,93.8035,266.3123,0.00013847,1.917e-05,0.0,0 STARLINK-3343,1 50822U 22001V   23286.86353897  .00001917  00000-0  13847-3 0  9996,2 50822  53.2160 149.8366 0001458  93.8035 266.3123 15.08844893 99134,6917.865,95.437,540.739,538.722,0.0
50822.0,STARLINK-3343,PAYLOAD,2023-10-13 22:18:52,15.08848475,0.000146,53.2161,149.542,102.2369,257.8787,0.00019757,2.858e-05,0.0,0 STARLINK-3343,1 50822U 22001V   23286.92977758  .00002858  00000-0  19757-3 0  9992,2 50822  53.2161 149.5420 0001460 102.2369 257.8787 15.08848475 97893,6917.854,95.437,540.729,538.709,0.0
50822.0,STARLINK-3343,PAYLOAD,2023-10-14 07:51:11,15.08842284,0.000123,53.2146,147.7517,86.7462,273.367,7.5455e-05,9.13e-06,0.0,0 STARLINK-3343,1 50822U 22001V   23287.32721952  .00000913  00000-0  75455-4 0  9998,2 50822  53.2146 147.7517 0001230  86.7462 273.3670 15.08842284 97951,6917.873,95.437,540.589,538.888,0.0
50822.0,STARLINK-3343,PAYLOAD,2023-10-14 20:34:17,15.08837308,0.0001458,53.2149,145.3735,83.8325,276.2834,-5.393e-05,-1.146e-05,0.0,0 STARLINK-3343,1 50822U 22001V   23287.85714276 -.00001146  00000-0 -53930-4 0  9992,2 50822  53.2149 145.3735 0001458  83.8325 276.2834 15.08837308 99281,6917.889,95.438,540.762,538.745,0.0
